[
    {
        "Altitude(m)": 573573.3809096557,
        "Argument of Periapsis(deg)": -0.022603160782972403,
        "Eccentricity": 0.0,
        "Inclination(deg)": 97.0,
        "Latitude(deg)": 59.81148493254719,
        "Longitude(deg)": -54.46202105838632,
        "Mean Anomaly(deg)": 60.47974326918749,
        "RAAN(deg)": 60.005947053618506,
        "Satellite Name": "Starlink Shell 3 1704",
        "Satellite Number": 1704,
        "Semi-Major Axis(m)": 6938478.169268562,
        "Time(s)": 570
    },
    {
        "Altitude(m)": 573700.6464346607,
        "Argument of Periapsis(deg)": -0.02299970746337543,
        "Eccentricity": 0.0,
        "Inclination(deg)": 97.0,
        "Latitude(deg)": 60.41691638106694,
        "Longitude(deg)": -54.808471716562586,
        "Mean Anomaly(deg)": 61.10521946689253,
        "RAAN(deg)": 60.00605138789252,
        "Satellite Name": "Starlink Shell 3 1704",
        "Satellite Number": 1704,
        "Semi-Major Axis(m)": 6938478.169268562,
        "Time(s)": 580
    },
    {
        "Altitude(m)": 573826.4039779757,
        "Argument of Periapsis(deg)": -0.023396254143778456,
        "Eccentricity": 0.0,
        "Inclination(deg)": 97.0,
        "Latitude(deg)": 61.02156206521375,
        "Longitude(deg)": -55.16644289796251,
        "Mean Anomaly(deg)": 61.730695664597576,
        "RAAN(deg)": 60.006155722166525,
        "Satellite Name": "Starlink Shell 3 1704",
        "Satellite Number": 1704,
        "Semi-Major Axis(m)": 6938478.169268562,
        "Time(s)": 590
    },
    {
        "Altitude(m)": 573950.5801619672,
        "Argument of Periapsis(deg)": -0.023792800824181483,
        "Eccentricity": 0.0,
        "Inclination(deg)": 97.0,
        "Latitude(deg)": 61.62537657632953,
        "Longitude(deg)": -55.536660102873135,
        "Mean Anomaly(deg)": 62.356171862302624,
        "RAAN(deg)": 60.00626005644054,
        "Satellite Name": "Starlink Shell 3 1704",
        "Satellite Number": 1704,
        "Semi-Major Axis(m)": 6938478.169268562,
        "Time(s)": 600
    },
    {
        "Altitude(m)": 574073.1026553507,
        "Argument of Periapsis(deg)": -0.024189347504584503,
        "Eccentricity": 0.0,
        "Inclination(deg)": 97.0,
        "Latitude(deg)": 62.22831058946204,
        "Longitude(deg)": -55.91990895992148,
        "Mean Anomaly(deg)": 62.981648060007636,
        "RAAN(deg)": 60.00636439071455,
        "Satellite Name": "Starlink Shell 3 1704",
        "Satellite Number": 1704,
        "Semi-Major Axis(m)": 6938478.169268562,
        "Time(s)": 610
    },
    {
        "Altitude(m)": 574193.9002082221,
        "Argument of Periapsis(deg)": -0.02458589418498753,
        "Eccentricity": 0.0,
        "Inclination(deg)": 97.0,
        "Latitude(deg)": 62.83031043944004,
        "Longitude(deg)": -56.317040929091235,
        "Mean Anomaly(deg)": 63.60712425771273,
        "RAAN(deg)": 60.00646872498855,
        "Satellite Name": "Starlink Shell 3 1704",
        "Satellite Number": 1704,
        "Semi-Major Axis(m)": 6938478.169268562,
        "Time(s)": 620
    },
    {
        "Altitude(m)": 574312.9026865234,
        "Argument of Periapsis(deg)": -0.024982440865390556,
        "Eccentricity": 0.0,
        "Inclination(deg)": 97.0,
        "Latitude(deg)": 63.43131764241289,
        "Longitude(deg)": -56.72898144531108,
        "Mean Anomaly(deg)": 64.23260045541775,
        "RAAN(deg)": 60.00657305926256,
        "Satellite Name": "Starlink Shell 3 1704",
        "Satellite Number": 1704,
        "Semi-Major Axis(m)": 6938478.169268562,
        "Time(s)": 630
    },
    {
        "Altitude(m)": 574430.0411059109,
        "Argument of Periapsis(deg)": -0.025378987545793576,
        "Eccentricity": 0.0,
        "Inclination(deg)": 97.0,
        "Latitude(deg)": 64.0312683546847,
        "Longitude(deg)": -57.15673640645876,
        "Mean Anomaly(deg)": 64.85807665312277,
        "RAAN(deg)": 60.00667739353657,
        "Satellite Name": "Starlink Shell 3 1704",
        "Satellite Number": 1704,
        "Semi-Major Axis(m)": 6938478.169268562,
        "Time(s)": 640
    },
    {
        "Altitude(m)": 574545.2476650375,
        "Argument of Periapsis(deg)": -0.025775534226196602,
        "Eccentricity": 0.0,
        "Inclination(deg)": 97.0,
        "Latitude(deg)": 64.63009275927081,
        "Longitude(deg)": -57.60140217132984,
        "Mean Anomaly(deg)": 65.48355285082785,
        "RAAN(deg)": 60.006781727810576,
        "Satellite Name": "Starlink Shell 3 1704",
        "Satellite Number": 1704,
        "Semi-Major Axis(m)": 6938478.169268562,
        "Time(s)": 650
    },
    {
        "Altitude(m)": 574658.4557781972,
        "Argument of Periapsis(deg)": -0.026172080906599626,
        "Eccentricity": 0.0,
        "Inclination(deg)": 97.0,
        "Latitude(deg)": 65.22771436896059,
        "Longitude(deg)": -58.06417500688199,
        "Mean Anomaly(deg)": 66.10902904853289,
        "RAAN(deg)": 60.00688606208459,
        "Satellite Name": "Starlink Shell 3 1704",
        "Satellite Number": 1704,
        "Semi-Major Axis(m)": 6938478.169268562,
        "Time(s)": 660
    },
    {
        "Altitude(m)": 574769.6001073758,
        "Argument of Periapsis(deg)": -0.026568627587002652,
        "Eccentricity": 0.0,
        "Inclination(deg)": 97.0,
        "Latitude(deg)": 65.82404923269027,
        "Longitude(deg)": -58.54636182960913,
        "Mean Anomaly(deg)": 66.73450524623793,
        "RAAN(deg)": 60.0069903963586,
        "Satellite Name": "Starlink Shell 3 1704",
        "Satellite Number": 1704,
        "Semi-Major Axis(m)": 6938478.169268562,
        "Time(s)": 670
    },
    {
        "Altitude(m)": 574878.6165936319,
        "Argument of Periapsis(deg)": -0.02696517426740568,
        "Eccentricity": 0.0,
        "Inclination(deg)": 97.0,
        "Latitude(deg)": 66.41900502967651,
        "Longitude(deg)": -59.049393943538654,
        "Mean Anomaly(deg)": 67.35998144394296,
        "RAAN(deg)": 60.0070947306326,
        "Satellite Name": "Starlink Shell 3 1704",
        "Satellite Number": 1704,
        "Semi-Major Axis(m)": 6938478.169268562,
        "Time(s)": 680
    },
    {
        "Altitude(m)": 574985.4424878261,
        "Argument of Periapsis(deg)": -0.0273617209478087,
        "Eccentricity": 0.0,
        "Inclination(deg)": 97.0,
        "Latitude(deg)": 67.01248003294674,
        "Longitude(deg)": -59.5748409685748,
        "Mean Anomaly(deg)": 67.98545764164801,
        "RAAN(deg)": 60.00719906490661,
        "Satellite Name": "Starlink Shell 3 1704",
        "Satellite Number": 1704,
        "Semi-Major Axis(m)": 6938478.169268562,
        "Time(s)": 690
    },
    {
        "Altitude(m)": 575090.0163807152,
        "Argument of Periapsis(deg)": -0.027758267628211725,
        "Eccentricity": 0.0,
        "Inclination(deg)": 97.0,
        "Latitude(deg)": 67.60436192052023,
        "Longitude(deg)": -60.124426726003385,
        "Mean Anomaly(deg)": 68.61093383935308,
        "RAAN(deg)": 60.00730339918062,
        "Satellite Name": "Starlink Shell 3 1704",
        "Satellite Number": 1704,
        "Semi-Major Axis(m)": 6938478.169268562,
        "Time(s)": 700
    },
    {
        "Altitude(m)": 575192.2782323281,
        "Argument of Periapsis(deg)": -0.028154814308614752,
        "Eccentricity": 0.0,
        "Inclination(deg)": 97.0,
        "Latitude(deg)": 68.19452640843996,
        "Longitude(deg)": -60.70004888768303,
        "Mean Anomaly(deg)": 69.23641003705809,
        "RAAN(deg)": 60.007407733454635,
        "Satellite Name": "Starlink Shell 3 1704",
        "Satellite Number": 1704,
        "Semi-Major Axis(m)": 6938478.169268562,
        "Time(s)": 710
    },
    {
        "Altitude(m)": 575292.1694006791,
        "Argument of Periapsis(deg)": -0.02855136098901778,
        "Eccentricity": 0.0,
        "Inclination(deg)": 97.0,
        "Latitude(deg)": 68.78283567498093,
        "Longitude(deg)": -61.303799702319616,
        "Mean Anomaly(deg)": 69.86188623476312,
        "RAAN(deg)": 60.00751206772864,
        "Satellite Name": "Starlink Shell 3 1704",
        "Satellite Number": 1704,
        "Semi-Major Axis(m)": 6938478.169268562,
        "Time(s)": 720
    },
    {
        "Altitude(m)": 575389.632669771,
        "Argument of Periapsis(deg)": -0.028947907669420805,
        "Eccentricity": 0.0,
        "Inclination(deg)": 97.0,
        "Latitude(deg)": 69.36913653948739,
        "Longitude(deg)": -61.93798970248703,
        "Mean Anomaly(deg)": 70.48736243246819,
        "RAAN(deg)": 60.007616402002654,
        "Satellite Name": "Starlink Shell 3 1704",
        "Satellite Number": 1704,
        "Semi-Major Axis(m)": 6938478.169268562,
        "Time(s)": 730
    },
    {
        "Altitude(m)": 575484.6122768949,
        "Argument of Periapsis(deg)": -0.029344454349823825,
        "Eccentricity": 0.0,
        "Inclination(deg)": 97.0,
        "Latitude(deg)": 69.95325835222067,
        "Longitude(deg)": -62.605176354098326,
        "Mean Anomaly(deg)": 71.11283863017323,
        "RAAN(deg)": 60.00772073627665,
        "Satellite Name": "Starlink Shell 3 1704",
        "Satellite Number": 1704,
        "Semi-Major Axis(m)": 6938478.169268562,
        "Time(s)": 740
    },
    {
        "Altitude(m)": 575577.0539391857,
        "Argument of Periapsis(deg)": -0.029741001030226845,
        "Eccentricity": 0.0,
        "Inclination(deg)": 97.0,
        "Latitude(deg)": 70.5350105430827,
        "Longitude(deg)": -63.308195135614284,
        "Mean Anomaly(deg)": 71.73831482787827,
        "RAAN(deg)": 60.007825070550666,
        "Satellite Name": "Starlink Shell 3 1704",
        "Satellite Number": 1704,
        "Semi-Major Axis(m)": 6938478.169268562,
        "Time(s)": 750
    }
]